[Satellite]
VERSION=1.1
NAME=ARIRANG-5 (KOMPSAT-5)
NICKNAME=ARIRANG-5 (KOMPSAT-5)
TLE1=1 39227U 13042A   17186.10428418 -.00000420  00000-0 -25737-4 0  9990
TLE2=2 39227  97.6081  10.8139 0002334  69.1618  75.2478 15.04513289212388
